NORAD_CAT_ID,OBJECT_NAME,OBJECT_TYPE,EPOCH,MEAN_MOTION,ECCENTRICITY,INCLINATION,RA_OF_ASC_NODE,ARG_OF_PERICENTER,MEAN_ANOMALY,BSTAR,MEAN_MOTION_DOT,MEAN_MOTION_DDOT,TLE_LINE0,TLE_LINE1,TLE_LINE2,SEMIMAJOR_AXIS,PERIOD,APOGEE,PERIGEE,DECAYED
55272.0,STARLINK-5310,PAYLOAD,2024-06-25 05:39:58,14.99147016,0.0003416,69.9993,173.6778,271.4234,88.6535,9.0507e-05,1.009e-05,0.0,0 STARLINK-5310,1 55272U 23010D   24177.23609097  .00001009  00000-0  90507-4 0  9999,2 55272  69.9993 173.6778 0003416 271.4234  88.6535 14.99147016 79243,6947.667,96.055,571.906,567.159,0.0
55272.0,STARLINK-5310,PAYLOAD,2024-06-25 08:52:08,14.99147869,0.0003396,69.9993,173.341,270.7154,89.3617,9.731e-05,1.092e-05,0.0,0 STARLINK-5310,1 55272U 23010D   24177.36953749  .00001092  00000-0  97310-4 0  9990,2 55272  69.9993 173.3410 0003396 270.7154  89.3617 14.99147869 79574,6947.665,96.055,571.889,567.17,0.0
55272.0,STARLINK-5310,PAYLOAD,2024-06-26 08:53:21,14.99150207,0.0003331,69.9994,170.8148,268.4646,91.6132,6.1107e-05,6.51e-06,0.0,0 STARLINK-5310,1 55272U 23010D   24178.37039038  .00000651  00000-0  61107-4 0  9993,2 55272  69.9994 170.8148 0003331 268.4646  91.6132 14.99150207 79415,6947.658,96.054,571.837,567.208,0.0
55272.0,STARLINK-5310,PAYLOAD,2024-06-27 04:06:32,14.99000821,0.0003915,69.9994,168.7943,284.1041,75.9683,-0.0015828,-0.00019259,0.0,0 STARLINK-5310,1 55272U 23010D   24179.17121431 -.00019259  00000-0 -15828-2 0  9994,2 55272  69.9994 168.7943 0003915 284.1041  75.9683 14.99000821 79531,6948.119,96.064,572.704,567.264,0.0
55272.0,STARLINK-5310,PAYLOAD,2024-06-27 08:54:59,14.98868531,0.0003443,69.9994,168.2891,269.1836,90.8928,-0.0029358,-0.00035438,0.0,0 STARLINK-5310,1 55272U 23010D   24179.37152449 -.00035438  00000-0 -29358-2 0  9999,2 55272  69.9994 168.2891 0003443 269.1836  90.8928 14.98868531 79569,6948.528,96.072,572.785,568.001,0.0
55272.0,STARLINK-5310,PAYLOAD,2024-06-27 16:55:38,14.98756171,0.0003253,69.9989,167.4456,274.7962,85.2826,-0.0038728,-0.00046508,0.0,0 STARLINK-5310,1 55272U 23010D   24179.70530416 -.00046508  00000-0 -38728-2 0  9991,2 55272  69.9989 167.4456 0003253 274.7962  85.2826 14.98756171 79619,6948.875,96.08,573.001,568.48,0.0
55272.0,STARLINK-5310,PAYLOAD,2024-06-28 05:44:37,14.98649258,0.0003276,69.9992,166.1007,268.6266,91.4518,-0.0044241,-0.00052921,0.0,0 STARLINK-5310,1 55272U 23010D   24180.23931961 -.00052921  00000-0 -44241-2 0  9994,2 55272  69.9992 166.1007 0003276 268.6266  91.4518 14.98649258 79697,6949.206,96.087,573.347,568.794,0.0
55272.0,STARLINK-5310,PAYLOAD,2024-06-28 08:56:51,14.98639373,0.0003407,69.9991,165.7637,268.4942,91.5827,-0.0043622,-0.00052174,0.0,0 STARLINK-5310,1 55272U 23010D   24180.37281451 -.00052174  00000-0 -43622-2 0  9993,2 55272  69.9991 165.7637 0003407 268.4942  91.5827 14.98639373 80025,6949.236,96.087,573.469,568.734,0.0
55272.0,STARLINK-5310,PAYLOAD,2024-06-29 04:10:19,14.98499278,0.0003455,69.9992,163.7436,273.8844,86.192,-0.0026624,-0.00031857,0.0,0 STARLINK-5310,1 55272U 23010D   24181.17383117 -.00031857  00000-0 -26624-2 0  9992,2 55272  69.9992 163.7436 0003455 273.8844  86.1920 14.98499278 79834,6949.669,96.096,573.936,569.133,0.0
55272.0,STARLINK-5310,PAYLOAD,2024-06-29 08:58:41,14.9848402,0.0003061,69.9992,163.2386,269.1363,90.9445,-0.0024035,-0.00028768,0.0,0 STARLINK-5310,1 55272U 23010D   24181.37409465 -.00028768  00000-0 -24035-2 0  9990,2 55272  69.9992 163.2386 0003061 269.1363  90.9445 14.98484020 80173,6949.717,96.097,573.709,569.454,0.0
55272.0,STARLINK-5310,PAYLOAD,2024-06-30 05:48:28,14.98330319,0.0002933,69.9996,161.051,261.4513,98.6314,-3.1211e-05,-4.65e-06,0.0,0 STARLINK-5310,1 55272U 23010D   24182.24199205 -.00000465  00000-0 -31211-4 0  9995,2 55272  69.9996 161.0510 0002933 261.4513  98.6314 14.98330319 79990,6950.192,96.107,574.095,570.018,0.0
55272.0,STARLINK-5310,PAYLOAD,2024-06-30 14:00:01,14.98350051,0.0003046,70.0004,160.1896,272.7464,128.0621,-0.0038323,-0.00045547,0.0,0 STARLINK-5310,1 55272U 23010D   24182.58334491 -.00045547  00000-0 -38323-2 0  9999,2 55272  70.0004 160.1896 0003046 272.7464 128.0621 14.98350051  5720,6950.131,96.106,574.113,569.879,0.0
55272.0,STARLINK-5310,PAYLOAD,2024-06-30 22:00:00,14.98329516,0.0003052,70.0006,159.3492,267.3321,130.9633,0.0027455,0.00032819,0.0,0 STARLINK-5310,1 55272U 23010D   24182.91667824  .00032819  00000-0  27455-2 0  9995,2 55272  70.0006 159.3492 0003052 267.3321 130.9633 14.98329516  5775,6950.194,96.107,574.181,569.938,0.0
55272.0,STARLINK-5310,PAYLOAD,2024-07-01 07:26:37,14.98331418,0.0003061,69.9996,158.3574,270.1596,89.9212,1.7268e-05,1.13e-06,0.0,0 STARLINK-5310,1 55272U 23010D   24183.31015059  .00000113  00000-0  17268-4 0  9992,2 55272  69.9996 158.3574 0003061 270.1596  89.9212 14.98331418 80151,6950.189,96.107,574.181,569.926,0.0
55272.0,STARLINK-5310,PAYLOAD,2024-07-01 21:51:49,14.98329688,0.0003131,69.9994,156.8422,270.5384,89.5417,5.8765e-05,6.08e-06,0.0,0 STARLINK-5310,1 55272U 23010D   24183.91099071  .00000608  00000-0  58765-4 0  9990,2 55272  69.9994 156.8422 0003131 270.5384  89.5417 14.98329688 80554,6950.194,96.107,574.235,569.883,0.0
55272.0,STARLINK-5310,PAYLOAD,2024-07-02 07:28:37,14.98334697,0.0003091,69.9995,155.8326,269.2548,90.8256,0.00010862,1.203e-05,0.0,0 STARLINK-5310,1 55272U 23010D   24184.31154593  .00001203  00000-0  10862-3 0  9993,2 55272  69.9995 155.8326 0003091 269.2548  90.8256 14.98334697 80304,6950.178,96.107,574.192,569.895,0.0
55272.0,STARLINK-5310,PAYLOAD,2024-07-02 21:53:50,14.98327291,0.0003012,69.9998,154.318,269.1136,90.9678,-3.2838e-05,-4.85e-06,0.0,0 STARLINK-5310,1 55272U 23010D   24184.91239409 -.00000485  00000-0 -32838-4 0  9990,2 55272  69.9998 154.3180 0003012 269.1136  90.9678 14.98327291 80394,6950.201,96.107,574.16,569.973,0.0
55272.0,STARLINK-5310,PAYLOAD,2024-07-03 15:31:19,14.98328442,0.0003051,70.0,152.4663,269.2929,90.7881,2.6375e-05,2.22e-06,0.0,0 STARLINK-5310,1 55272U 23010D   24185.64675245  .00000222  00000-0  26375-4 0  9999,2 55272  70.0000 152.4663 0003051 269.2929  90.7881 14.98328442 80810,6950.198,96.107,574.183,569.942,0.0
55272.0,STARLINK-5310,PAYLOAD,2024-07-04 04:20:23,14.98336465,0.0003138,69.9998,151.1195,269.6181,90.4619,3.7904e-05,3.59e-06,0.0,0 STARLINK-5310,1 55272U 23010D   24186.18082598  .00000359  00000-0  37904-4 0  9993,2 55272  69.9998 151.1195 0003138 269.6181  90.4619 14.98336465 80583,6950.173,96.107,574.219,569.857,0.0
55272.0,STARLINK-5310,PAYLOAD,2024-07-04 07:32:39,14.98337686,0.0003126,69.9999,150.7829,269.608,90.4721,5.0793e-05,5.13e-06,0.0,0 STARLINK-5310,1 55272U 23010D   24186.31434436  .00000513  00000-0  50793-4 0  9993,2 55272  69.9999 150.7829 0003126 269.6080  90.4721 14.98337686 80915,6950.169,96.107,574.207,569.861,0.0
55272.0,STARLINK-5310,PAYLOAD,2024-07-04 21:57:52,14.98330432,0.0003157,70.0,149.2681,269.791,90.2888,8.6944e-05,9.45e-06,0.0,0 STARLINK-5310,1 55272U 23010D   24186.91518673  .00000945  00000-0  86944-4 0  9991,2 55272  70.0000 149.2681 0003157 269.7910  90.2888 14.98330432 81002,6950.192,96.107,574.251,569.862,0.0
55272.0,STARLINK-5310,PAYLOAD,2024-07-05 04:22:24,14.98333124,0.0003179,69.9999,148.5952,270.104,89.9754,0.00010849,1.202e-05,0.0,0 STARLINK-5310,1 55272U 23010D   24187.18222431  .00001202  00000-0  10849-3 0  9992,2 55272  69.9999 148.5952 0003179 270.1040  89.9754 14.98333124 80730,6950.183,96.107,574.258,569.839,0.0
55272.0,STARLINK-5310,PAYLOAD,2024-07-05 07:34:40,14.98334243,0.0003165,69.9999,148.2585,270.0825,89.9972,0.00011722,1.306e-05,0.0,0 STARLINK-5310,1 55272U 23010D   24187.31574312  .00001306  00000-0  11722-3 0  9991,2 55272  69.9999 148.2585 0003165 270.0825  89.9972 14.98334243 81066,6950.18,96.107,574.245,569.845,0.0
55272.0,STARLINK-5310,PAYLOAD,2024-07-05 21:59:53,14.98329423,0.0003059,70.0002,146.7436,270.211,89.8698,-5.4475e-05,-7.43e-06,0.0,0 STARLINK-5310,1 55272U 23010D   24187.91659049 -.00000743  00000-0 -54475-4 0  9997,2 55272  70.0002 146.7436 0003059 270.2110  89.8698 14.98329423 81151,6950.195,96.107,574.186,569.934,0.0
55272.0,STARLINK-5310,PAYLOAD,2024-07-06 04:24:25,14.98332995,0.000309,70.0001,146.0705,269.8015,90.279,-1.9205e-05,-3.22e-06,0.0,0 STARLINK-5310,1 55272U 23010D   24188.18362702 -.00000322  00000-0 -19205-4 0  9999,2 55272  70.0001 146.0705 0003090 269.8015  90.2790 14.98332995 80881,6950.184,96.107,574.196,569.901,0.0
55272.0,STARLINK-5310,PAYLOAD,2024-07-06 14:01:13,14.98329344,0.0002984,70.0003,145.0605,270.8246,89.2571,-2.5263e-05,-3.94e-06,0.0,0 STARLINK-5310,1 55272U 23010D   24188.58418865 -.00000394  00000-0 -25263-4 0  9995,2 55272  70.0003 145.0605 0002984 270.8246  89.2571 14.98329344 81251,6950.195,96.107,574.134,569.986,0.0
55272.0,STARLINK-5310,PAYLOAD,2024-07-06 22:01:54,14.98330145,0.0002885,70.0004,144.2191,272.8237,87.2592,-3.5898e-05,-5.21e-06,0.0,0 STARLINK-5310,1 55272U 23010D   24188.91798896 -.00000521  00000-0 -35898-4 0  9994,2 55272  70.0004 144.2191 0002885 272.8237  87.2592 14.98330145 81303,6950.192,96.107,574.063,570.052,0.0
55272.0,STARLINK-5310,PAYLOAD,2024-07-07 04:26:26,14.98331193,0.0002834,70.0003,143.5464,269.7145,90.3689,-9.6232e-06,-2.08e-06,0.0,0 STARLINK-5310,1 55272U 23010D   24189.18502731 -.00000208  00000-0 -96232-5 0  9997,2 55272  70.0003 143.5464 0002834 269.7145  90.3689 14.98331193 81030,6950.189,96.107,574.024,570.085,0.0
55272.0,STARLINK-5310,PAYLOAD,2024-07-07 06:02:34,14.98331394,0.0002824,70.0004,143.3781,270.0769,90.0066,-5.2351e-06,-1.55e-06,0.0,0 STARLINK-5310,1 55272U 23010D   24189.25178705 -.00000155  00000-0 -52351-5 0  9990,2 55272  70.0004 143.3781 0002824 270.0769  90.0066 14.98331394 81351,6950.189,96.107,574.016,570.091,0.0
55272.0,STARLINK-5310,PAYLOAD,2024-07-08 06:04:34,14.98334431,0.0002841,70.0001,140.8533,267.7122,92.3712,8.7538e-05,9.52e-06,0.0,0 STARLINK-5310,1 55272U 23010D   24190.25318167  .00000952  00000-0  87538-4 0  9997,2 55272  70.0001 140.8533 0002841 267.7122  92.3712 14.98334431 81190,6950.179,96.107,574.019,570.07,0.0
